ALOS (DAICHI)           
1 28931U 06002A   26091.10391638  .00001813  00000+0  31140-3 0  9994
2 28931  98.1254  46.9532 0000964 111.6333 248.4975 14.69880216 76771
H-2A R/B                
1 28932U 06002B   26090.97494239  .00013916  00000+0  68429-3 0  9997
2 28932  98.2448 239.9293 0052456 164.9694 195.3111 15.16929806 97812
RESURS-DK 1             
1 29228U 06021A   26091.21486922  .00002253  00000+0  13385-3 0  9998
2 29228  69.9337 178.7550 0001602  43.5188 316.6104 15.12881914 90935
CZ-4B R/B               
1 29507U 06046C   26091.10188579  .00005894  00000+0  29651-3 0  9997
2 29507  97.5547 135.9485 0033018 187.0489 173.0284 15.17135934 63440
CZ-2C R/B               
1 31114U 07010B   26091.19952331  .00000159  00000+0  92344-4 0  9999
2 31114  98.4001 203.3527 0058183 227.9459 131.6760 14.20254453982912
COSMO-SKYMED 1          
1 31598U 07023A   26091.19581356  .00003679  00000+0  32741-3 0  9998
2 31598  97.8867 282.4118 0001260 102.9798 257.1564 14.96699087 18271
COSMOS 2428             
1 31792U 07029A   26091.18911266 -.00000031  00000+0  89624-5 0  9990
2 31792  70.9427 156.1219 0009712 253.7608 106.2445 14.12948535967273
SL-16 R/B               
1 31793U 07029B   26091.18847044 -.00000072  00000+0 -12436-4 0  9995
2 31793  70.9744 125.0921 0002838 277.6928 146.7352 14.14843664968550
KORONAS-FOTON           
1 33504U 09003A   26091.19386686  .00014360  00000+0  31405-3 0  9991
2 33504  82.4277 252.4676 0011643  76.6779 283.5766 15.43941807949210
CZ-2C R/B               
1 37731U 11030B   26091.16471550  .00001882  00000+0  24290-3 0  9991
2 37731  97.8581  47.9848 0050971 277.5719  93.9538 14.81301938793421
H-2A R/B                
1 38341U 12025E   26091.14652141  .00003359  00000+0  30536-3 0  9990
2 38341  98.4770  59.9985 0042932 238.4797 121.2224 14.95328055751572
SHIJIAN-16 (SJ-16)      
1 39358U 13057A   26091.22043985  .00001284  00000+0  12784-3 0  9994
2 39358  74.9721 142.4367 0015359  54.0947 306.1664 14.92430618674864
SL-4 R/B                
1 39679U 14021B   26091.08795239  .00021974  00000+0  47028-3 0  9999
2 39679  51.6059 227.9446 0094909 184.6117 175.4003 15.39993158659727
ALOS-2                  
1 39766U 14029A   26091.24049553  .00003171  00000+0  43142-3 0  9995
2 39766  97.9198 189.5103 0002013 102.7648 257.3789 14.79465181640206
YAOGAN-29               
1 41038U 15069A   26091.19504639  .00000646  00000+0  86117-4 0  9994
2 41038  98.0111 119.6820 0000203 357.5386   2.5826 14.83021063559210
ASTRO-H (HITOMI)        
1 41337U 16012A   26091.04183531  .00004204  00000+0  24555-3 0  9994
2 41337  30.9993 212.2872 0009638 196.7347 163.2973 15.10148947555613
HXMT (HUIYAN)           
1 42758U 17034A   26091.15531587  .00007393  00000+0  36651-3 0  9999
2 42758  43.0135 251.7455 0031416  14.4087 345.7651 15.17749733485951
