[{"OBJECT_NAME":"ALOS (DAICHI)","OBJECT_ID":"2006-002A","EPOCH":"2026-04-01T02:29:38.375232","MEAN_MOTION":14.69880216,"ECCENTRICITY":9.64e-5,"INCLINATION":98.1254,"RA_OF_ASC_NODE":46.9532,"ARG_OF_PERICENTER":111.6333,"MEAN_ANOMALY":248.4975,"EPHEMERIS_TYPE":0,"CLASSIFICATION_TYPE":"U","NORAD_CAT_ID":28931,"ELEMENT_SET_NO":999,"REV_AT_EPOCH":7677,"BSTAR":0.0003114,"MEAN_MOTION_DOT":1.813e-5,"MEAN_MOTION_DDOT":0},{"OBJECT_NAME":"H-2A R/B","OBJECT_ID":"2006-002B","EPOCH":"2026-03-31T23:23:55.022496","MEAN_MOTION":15.16929806,"ECCENTRICITY":0.0052456,"INCLINATION":98.2448,"RA_OF_ASC_NODE":239.9293,"ARG_OF_PERICENTER":164.9694,"MEAN_ANOMALY":195.3111,"EPHEMERIS_TYPE":0,"CLASSIFICATION_TYPE":"U","NORAD_CAT_ID":28932,"ELEMENT_SET_NO":999,"REV_AT_EPOCH":9781,"BSTAR":0.00068429,"MEAN_MOTION_DOT":0.00013916,"MEAN_MOTION_DDOT":0},{"OBJECT_NAME":"RESURS-DK 1","OBJECT_ID":"2006-021A","EPOCH":"2026-04-01T05:09:24.700608","MEAN_MOTION":15.12881914,"ECCENTRICITY":0.0001602,"INCLINATION":69.9337,"RA_OF_ASC_NODE":178.755,"ARG_OF_PERICENTER":43.5188,"MEAN_ANOMALY":316.6104,"EPHEMERIS_TYPE":0,"CLASSIFICATION_TYPE":"U","NORAD_CAT_ID":29228,"ELEMENT_SET_NO":999,"REV_AT_EPOCH":9093,"BSTAR":0.00013385,"MEAN_MOTION_DOT":2.253e-5,"MEAN_MOTION_DDOT":0},{"OBJECT_NAME":"CZ-4B R/B","OBJECT_ID":"2006-046C","EPOCH":"2026-04-01T02:26:42.932256","MEAN_MOTION":15.17135934,"ECCENTRICITY":0.0033018,"INCLINATION":97.5547,"RA_OF_ASC_NODE":135.9485,"ARG_OF_PERICENTER":187.0489,"MEAN_ANOMALY":173.0284,"EPHEMERIS_TYPE":0,"CLASSIFICATION_TYPE":"U","NORAD_CAT_ID":29507,"ELEMENT_SET_NO":999,"REV_AT_EPOCH":6344,"BSTAR":0.00029651,"MEAN_MOTION_DOT":5.894e-5,"MEAN_MOTION_DDOT":0},{"OBJECT_NAME":"CZ-2C R/B","OBJECT_ID":"2007-010B","EPOCH":"2026-04-01T04:47:18.813984","MEAN_MOTION":14.20254453,"ECCENTRICITY":0.0058183,"INCLINATION":98.4001,"RA_OF_ASC_NODE":203.3527,"ARG_OF_PERICENTER":227.9459,"MEAN_ANOMALY":131.676,"EPHEMERIS_TYPE":0,"CLASSIFICATION_TYPE":"U","NORAD_CAT_ID":31114,"ELEMENT_SET_NO":999,"REV_AT_EPOCH":98291,"BSTAR":9.2344e-5,"MEAN_MOTION_DOT":1.59e-6,"MEAN_MOTION_DDOT":0},{"OBJECT_NAME":"COSMO-SKYMED 1","OBJECT_ID":"2007-023A","EPOCH":"2026-04-01T04:41:58.291584","MEAN_MOTION":14.96699087,"ECCENTRICITY":0.000126,"INCLINATION":97.8867,"RA_OF_ASC_NODE":282.4118,"ARG_OF_PERICENTER":102.9798,"MEAN_ANOMALY":257.1564,"EPHEMERIS_TYPE":0,"CLASSIFICATION_TYPE":"U","NORAD_CAT_ID":31598,"ELEMENT_SET_NO":999,"REV_AT_EPOCH":1827,"BSTAR":0.00032741,"MEAN_MOTION_DOT":3.679e-5,"MEAN_MOTION_DDOT":0},{"OBJECT_NAME":"COSMOS 2428","OBJECT_ID":"2007-029A","EPOCH":"2026-04-01T04:32:19.333824","MEAN_MOTION":14.12948535,"ECCENTRICITY":0.0009712,"INCLINATION":70.9427,"RA_OF_ASC_NODE":156.1219,"ARG_OF_PERICENTER":253.7608,"MEAN_ANOMALY":106.2445,"EPHEMERIS_TYPE":0,"CLASSIFICATION_TYPE":"U","NORAD_CAT_ID":31792,"ELEMENT_SET_NO":999,"REV_AT_EPOCH":96727,"BSTAR":8.9624e-6,"MEAN_MOTION_DOT":-3.1e-7,"MEAN_MOTION_DDOT":0},{"OBJECT_NAME":"SL-16 R/B","OBJECT_ID":"2007-029B","EPOCH":"2026-04-01T04:31:23.846016","MEAN_MOTION":14.14843664,"ECCENTRICITY":0.0002838,"INCLINATION":70.9744,"RA_OF_ASC_NODE":125.0921,"ARG_OF_PERICENTER":277.6928,"MEAN_ANOMALY":146.7352,"EPHEMERIS_TYPE":0,"CLASSIFICATION_TYPE":"U","NORAD_CAT_ID":31793,"ELEMENT_SET_NO":999,"REV_AT_EPOCH":96855,"BSTAR":-1.2436e-5,"MEAN_MOTION_DOT":-7.2e-7,"MEAN_MOTION_DDOT":0},{"OBJECT_NAME":"KORONAS-FOTON","OBJECT_ID":"2009-003A","EPOCH":"2026-04-01T04:39:10.096704","MEAN_MOTION":15.43941807,"ECCENTRICITY":0.0011643,"INCLINATION":82.4277,"RA_OF_ASC_NODE":252.4676,"ARG_OF_PERICENTER":76.6779,"MEAN_ANOMALY":283.5766,"EPHEMERIS_TYPE":0,"CLASSIFICATION_TYPE":"U","NORAD_CAT_ID":33504,"ELEMENT_SET_NO":999,"REV_AT_EPOCH":94921,"BSTAR":0.00031405,"MEAN_MOTION_DOT":0.0001436,"MEAN_MOTION_DDOT":0},{"OBJECT_NAME":"CZ-2C R/B","OBJECT_ID":"2011-030B","EPOCH":"2026-04-01T03:57:11.419200","MEAN_MOTION":14.81301938,"ECCENTRICITY":0.0050971,"INCLINATION":97.8581,"RA_OF_ASC_NODE":47.9848,"ARG_OF_PERICENTER":277.5719,"MEAN_ANOMALY":93.9538,"EPHEMERIS_TYPE":0,"CLASSIFICATION_TYPE":"U","NORAD_CAT_ID":37731,"ELEMENT_SET_NO":999,"REV_AT_EPOCH":79342,"BSTAR":0.0002429,"MEAN_MOTION_DOT":1.882e-5,"MEAN_MOTION_DDOT":0},{"OBJECT_NAME":"H-2A R/B","OBJECT_ID":"2012-025E","EPOCH":"2026-04-01T03:30:59.449824","MEAN_MOTION":14.95328055,"ECCENTRICITY":0.0042932,"INCLINATION":98.477,"RA_OF_ASC_NODE":59.9985,"ARG_OF_PERICENTER":238.4797,"MEAN_ANOMALY":121.2224,"EPHEMERIS_TYPE":0,"CLASSIFICATION_TYPE":"U","NORAD_CAT_ID":38341,"ELEMENT_SET_NO":999,"REV_AT_EPOCH":75157,"BSTAR":0.00030536,"MEAN_MOTION_DOT":3.359e-5,"MEAN_MOTION_DDOT":0},{"OBJECT_NAME":"SHIJIAN-16 (SJ-16)","OBJECT_ID":"2013-057A","EPOCH":"2026-04-01T05:17:26.003040","MEAN_MOTION":14.92430618,"ECCENTRICITY":0.0015359,"INCLINATION":74.9721,"RA_OF_ASC_NODE":142.4367,"ARG_OF_PERICENTER":54.0947,"MEAN_ANOMALY":306.1664,"EPHEMERIS_TYPE":0,"CLASSIFICATION_TYPE":"U","NORAD_CAT_ID":39358,"ELEMENT_SET_NO":999,"REV_AT_EPOCH":67486,"BSTAR":0.00012784,"MEAN_MOTION_DOT":1.284e-5,"MEAN_MOTION_DDOT":0},{"OBJECT_NAME":"SL-4 R/B","OBJECT_ID":"2014-021B","EPOCH":"2026-04-01T02:06:39.086496","MEAN_MOTION":15.39993158,"ECCENTRICITY":0.0094909,"INCLINATION":51.6059,"RA_OF_ASC_NODE":227.9446,"ARG_OF_PERICENTER":184.6117,"MEAN_ANOMALY":175.4003,"EPHEMERIS_TYPE":0,"CLASSIFICATION_TYPE":"U","NORAD_CAT_ID":39679,"ELEMENT_SET_NO":999,"REV_AT_EPOCH":65972,"BSTAR":0.00047028,"MEAN_MOTION_DOT":0.00021974,"MEAN_MOTION_DDOT":0},{"OBJECT_NAME":"ALOS-2","OBJECT_ID":"2014-029A","EPOCH":"2026-04-01T05:46:18.813792","MEAN_MOTION":14.79465181,"ECCENTRICITY":0.0002013,"INCLINATION":97.9198,"RA_OF_ASC_NODE":189.5103,"ARG_OF_PERICENTER":102.7648,"MEAN_ANOMALY":257.3789,"EPHEMERIS_TYPE":0,"CLASSIFICATION_TYPE":"U","NORAD_CAT_ID":39766,"ELEMENT_SET_NO":999,"REV_AT_EPOCH":64020,"BSTAR":0.00043142,"MEAN_MOTION_DOT":3.171e-5,"MEAN_MOTION_DDOT":0},{"OBJECT_NAME":"YAOGAN-29","OBJECT_ID":"2015-069A","EPOCH":"2026-04-01T04:40:52.008096","MEAN_MOTION":14.83021063,"ECCENTRICITY":2.03e-5,"INCLINATION":98.0111,"RA_OF_ASC_NODE":119.682,"ARG_OF_PERICENTER":357.5386,"MEAN_ANOMALY":2.5826,"EPHEMERIS_TYPE":0,"CLASSIFICATION_TYPE":"U","NORAD_CAT_ID":41038,"ELEMENT_SET_NO":999,"REV_AT_EPOCH":55921,"BSTAR":8.6117e-5,"MEAN_MOTION_DOT":6.46e-6,"MEAN_MOTION_DDOT":0},{"OBJECT_NAME":"ASTRO-H (HITOMI)","OBJECT_ID":"2016-012A","EPOCH":"2026-04-01T01:00:14.570784","MEAN_MOTION":15.10148947,"ECCENTRICITY":0.0009638,"INCLINATION":30.9993,"RA_OF_ASC_NODE":212.2872,"ARG_OF_PERICENTER":196.7347,"MEAN_ANOMALY":163.2973,"EPHEMERIS_TYPE":0,"CLASSIFICATION_TYPE":"U","NORAD_CAT_ID":41337,"ELEMENT_SET_NO":999,"REV_AT_EPOCH":55561,"BSTAR":0.00024555,"MEAN_MOTION_DOT":4.204e-5,"MEAN_MOTION_DDOT":0},{"OBJECT_NAME":"HXMT (HUIYAN)","OBJECT_ID":"2017-034A","EPOCH":"2026-04-01T03:43:39.291168","MEAN_MOTION":15.17749733,"ECCENTRICITY":0.0031416,"INCLINATION":43.0135,"RA_OF_ASC_NODE":251.7455,"ARG_OF_PERICENTER":14.4087,"MEAN_ANOMALY":345.7651,"EPHEMERIS_TYPE":0,"CLASSIFICATION_TYPE":"U","NORAD_CAT_ID":42758,"ELEMENT_SET_NO":999,"REV_AT_EPOCH":48595,"BSTAR":0.00036651,"MEAN_MOTION_DOT":7.393e-5,"MEAN_MOTION_DDOT":0}]
